NORAD_CAT_ID,OBJECT_NAME,OBJECT_TYPE,EPOCH,MEAN_MOTION,ECCENTRICITY,INCLINATION,RA_OF_ASC_NODE,ARG_OF_PERICENTER,MEAN_ANOMALY,BSTAR,MEAN_MOTION_DOT,MEAN_MOTION_DDOT,TLE_LINE0,TLE_LINE1,TLE_LINE2,SEMIMAJOR_AXIS,PERIOD,APOGEE,PERIGEE,DECAYED
54102.0,STARLINK-5179,PAYLOAD,2022-12-08 22:00:01,15.52085958,0.0001132,53.2176,264.5177,83.8963,222.7913,-0.020398,-0.01130063,0.0,0 STARLINK-5179,1 54102U 22136BD  22342.91668981 -.01130063  00000-0 -20398-1 0  9996,2 54102  53.2176 264.5177 0001132  83.8963 222.7913 15.52085958  1302,6788.774,92.778,411.407,409.87,0.0
54102.0,STARLINK-5179,PAYLOAD,2022-12-09 00:00:00,15.51814992,0.0001085,53.217,264.1186,78.9917,333.5161,-0.018627,-0.01031383,0.0,0 STARLINK-5179,1 54102U 22136BD  22343.00001157 -.01031383  00000-0 -18627-1 0  9990,2 54102  53.2170 264.1186 0001085  78.9917 333.5161 15.51814992  8268,6789.564,92.795,412.166,410.692,0.0
54102.0,STARLINK-5179,PAYLOAD,2022-12-09 06:00:02,15.50928782,9e-05,53.2162,262.9222,72.311,297.6061,-0.01189,-0.00645861,0.0,0 STARLINK-5179,1 54102U 22136BD  22343.25002315 -.00645861  00000-0 -11890-1 0  9990,2 54102  53.2162 262.9222 0000900  72.3110 297.6061 15.50928782  8300,6792.15,92.848,414.626,413.404,0.0
54102.0,STARLINK-5179,PAYLOAD,2022-12-09 14:00:01,15.50319288,9.86e-05,53.2174,261.3249,79.4663,352.3172,-0.0097442,-0.00525915,0.0,0 STARLINK-5179,1 54102U 22136BD  22343.58334491 -.00525915  00000-0 -97442-2 0  9994,2 54102  53.2174 261.3249 0000986  79.4663 352.3172 15.50319288  1300,6793.93,92.884,416.465,415.125,0.0
54102.0,STARLINK-5179,PAYLOAD,2022-12-09 16:00:00,15.50170256,0.000101,53.2173,260.9256,75.7596,101.3815,-0.0071894,-0.00392631,0.0,0 STARLINK-5179,1 54102U 22136BD  22343.66667824 -.00392631  00000-0 -71894-2 0  9992,2 54102  53.2173 260.9256 0001010  75.7596 101.3815 15.50170256  8364,6794.366,92.893,416.917,415.544,0.0
54102.0,STARLINK-5179,PAYLOAD,2022-12-10 00:00:00,15.4997582,0.0001041,53.2152,259.3375,76.4916,161.7026,-0.0019263,-0.00108622,0.0,0 STARLINK-5179,1 54102U 22136BD  22344.00001157 -.00108622  00000-0 -19263-2 0  9999,2 54102  53.2152 259.3375 0001041  76.4916 161.7026 15.49975820  8411,6794.934,92.905,417.506,416.091,0.0
54102.0,STARLINK-5179,PAYLOAD,2022-12-10 14:00:01,15.49883785,0.0001135,53.2175,256.5444,82.1869,172.6347,6.251399999999999e-05,3.098e-05,0.0,0 STARLINK-5179,1 54102U 22136BD  22344.58334491  .00003098  00000-0  62514-4 0  9990,2 54102  53.2175 256.5444 0001135  82.1869 172.6347 15.49883785  1303,6795.203,92.91,417.839,416.296,0.0
54102.0,STARLINK-5179,PAYLOAD,2022-12-10 16:00:00,15.4988293,0.0001194,53.2173,256.1458,83.7434,276.3076,7.3152e-05,3.702e-05,0.0,0 STARLINK-5179,1 54102U 22136BD  22344.66667824  .00003702  00000-0  73152-4 0  9990,2 54102  53.2173 256.1458 0001194  83.7434 276.3076 15.49882930  8525,6795.205,92.91,417.882,416.259,0.0
54102.0,STARLINK-5179,PAYLOAD,2022-12-10 22:00:00,15.49890155,0.0001012,53.2145,254.9561,82.1035,233.7268,-0.00039281,-0.00022684,0.0,0 STARLINK-5179,1 54102U 22136BD  22344.91667824 -.00022684  00000-0 -39281-3 0  9994,2 54102  53.2145 254.9561 0001012  82.1035 233.7268 15.49890155  1301,6795.184,92.91,417.737,416.361,0.0
54102.0,STARLINK-5179,PAYLOAD,2022-12-11 08:00:01,15.49826593,0.000123,53.2157,252.9628,70.1807,51.8677,-0.011029,-0.00580839,0.0,0 STARLINK-5179,1 54102U 22136BD  22345.33335648 -.00580839  00000-0 -11029-1 0  9996,2 54102  53.2157 252.9628 0001230  70.1807  51.8677 15.49826593  8622,6795.37,92.914,418.071,416.399,0.0
54102.0,STARLINK-5179,PAYLOAD,2022-12-11 14:00:01,15.49683423,0.0001105,53.2172,251.7656,85.1711,352.2789,-0.022301,-0.01133027,0.0,0 STARLINK-5179,1 54102U 22136BD  22345.58334491 -.01133027  00000-0 -22301-1 0  9997,2 54102  53.2172 251.7656 0001105  85.1711 352.2789 15.49683423  1301,6795.788000000001,92.922,418.404,416.902,0.0
54102.0,STARLINK-5179,PAYLOAD,2022-12-11 16:00:00,15.49476645,0.0001274999999999,53.2172,251.3669,87.5146,95.0721,-0.02241,-0.01130544,0.0,0 STARLINK-5179,1 54102U 22136BD  22345.66667824 -.01130544  00000-0 -22410-1 0  9997,2 54102  53.2172 251.3669 0001275  87.5146  95.0721 15.49476645  8678,6796.393,92.935,419.125,417.391,0.0
54102.0,STARLINK-5179,PAYLOAD,2022-12-11 22:00:01,15.488644199999998,0.0001259,53.2174,250.1747,78.3941,59.2914,-0.02282,-0.01143498,0.0,0 STARLINK-5179,1 54102U 22136BD  22345.91668981 -.01143498  00000-0 -22820-1 0  9997,2 54102  53.2174 250.1747 0001259  78.3941  59.2914 15.48864420  1307,6798.184,92.971,420.905,419.193,0.0
54102.0,STARLINK-5179,PAYLOAD,2022-12-12 14:00:01,15.47235895,0.0001227,53.2174,246.9962,100.191,154.8335,-0.024107,-0.01141029,0.0,0 STARLINK-5179,1 54102U 22136BD  22346.58334491 -.01141029  00000-0 -24107-1 0  9995,2 54102  53.2174 246.9962 0001227 100.1910 154.8335 15.47235895  1300,6802.953,93.069,425.653,423.984,0.0
54102.0,STARLINK-5179,PAYLOAD,2022-12-12 16:00:01,15.47032015,0.0001065,53.2173,246.5993,85.1602,274.3294,-0.024279,-0.01140981,0.0,0 STARLINK-5179,1 54102U 22136BD  22346.66668981 -.01140981  00000-0 -24279-1 0  9994,2 54102  53.2173 246.5993 0001065  85.1602 274.3294 15.47032015  8835,6803.551,93.081,426.141,424.691,0.0
54102.0,STARLINK-5179,PAYLOAD,2022-12-12 22:00:00,15.46440736,0.0001183,53.2168,245.4122,99.455,212.794,-0.025394,-0.01166698,0.0,0 STARLINK-5179,1 54102U 22136BD  22346.91667824 -.01166698  00000-0 -25394-1 0  9999,2 54102  53.2168 245.4122 0001183  99.4550 212.7940 15.46440736  1303,6805.285,93.117,427.955,426.345,0.0
54102.0,STARLINK-5179,PAYLOAD,2022-12-13 14:00:01,15.44794891,0.000114,53.2174,242.2448,65.8589,357.9357,-0.026248,-0.011416,0.0,0 STARLINK-5179,1 54102U 22136BD  22347.58334491 -.01141600  00000-0 -26248-1 0  9999,2 54102  53.2174 242.2448 0001140  65.8589 357.9357 15.44794891  8974,6810.118,93.216,432.759,431.206,0.0
54102.0,STARLINK-5179,PAYLOAD,2022-12-13 22:00:00,15.43981661,0.0001264,53.2175,240.6663,73.9741,44.1204,-0.027001,-0.01142099,0.0,0 STARLINK-5179,1 54102U 22136BD  22347.91667824 -.01142099  00000-0 -27001-1 0  9996,2 54102  53.2175 240.6663 0001264  73.9741  44.1204 15.43981661  1301,6812.509,93.265,435.235,433.513,0.0
54102.0,STARLINK-5179,PAYLOAD,2022-12-14 06:00:00,15.43168866,0.0001303,53.2172,239.0886,74.79,96.627,-0.027781,-0.0114296,0.0,0 STARLINK-5179,1 54102U 22136BD  22348.25001157 -.01142960  00000-0 -27781-1 0  9997,2 54102  53.2172 239.0886 0001303  74.7900  96.6270 15.43168866  9078,6814.901,93.314,437.654,435.878,0.0
54102.0,STARLINK-5179,PAYLOAD,2022-12-14 14:00:01,15.42353361,0.0001269,53.2169,237.5115,73.4402,150.3232,-0.028487,-0.01140333,0.0,0 STARLINK-5179,1 54102U 22136BD  22348.58334491 -.01140333  00000-0 -28487-1 0  9999,2 54102  53.2169 237.5115 0001269  73.4402 150.3232 15.42353361  1305,6817.303000000001,93.364,440.033,438.30300000000005,0.0
54102.0,STARLINK-5179,PAYLOAD,2022-12-14 22:00:00,15.41562937,0.0001264,53.2169,235.9386,98.2803,176.8387,-0.030153,-0.01172282,0.0,0 STARLINK-5179,1 54102U 22136BD  22348.91667824 -.01172282  00000-0 -30153-1 0  9996,2 54102  53.2169 235.9386 0001264  98.2803 176.8387 15.41562937  1306,6819.6330000000025,93.412,442.36,440.636,0.0
54102.0,STARLINK-5179,PAYLOAD,2022-12-15 10:00:00,15.40320473,0.0001294,53.2175,233.5797,95.4351,74.9129,-0.030541,-0.0114189,0.0,0 STARLINK-5179,1 54102U 22136BD  22349.41667824 -.01141890  00000-0 -30541-1 0  9994,2 54102  53.2175 233.5797 0001294  95.4351  74.9129 15.40320473  9253,6823.3,93.487,446.048,444.282,0.0
54102.0,STARLINK-5179,PAYLOAD,2022-12-15 14:00:01,15.39910748,0.0001084,53.2172,232.7942,75.5253,299.4079,-0.030845,-0.01137965,0.0,0 STARLINK-5179,1 54102U 22136BD  22349.58334491 -.01137965  00000-0 -30845-1 0  9998,2 54102  53.2172 232.7942 0001084  75.5253 299.4079 15.39910748  1304,6824.51,93.512,447.115,445.635,0.0
54102.0,STARLINK-5179,PAYLOAD,2022-12-15 22:00:00,15.39099816,0.0001224,53.2174,231.2277,67.3075,356.0572,-0.031801,-0.01141834,0.0,0 STARLINK-5179,1 54102U 22136BD  22349.91667824 -.01141834  00000-0 -31801-1 0  9997,2 54102  53.2174 231.2277 0001224  67.3075 356.0572 15.39099816  1300,6826.906999999997,93.561,449.608,447.936,0.0
54102.0,STARLINK-5179,PAYLOAD,2022-12-16 08:00:01,15.38084086,0.0001246,53.2167,229.2698,83.7663,128.7654,-0.032956,-0.01144197,0.0,0 STARLINK-5179,1 54102U 22136BD  22350.33334491 -.01144197  00000-0 -32956-1 0  9993,2 54102  53.2167 229.2698 0001246  83.7663 128.7654 15.38084086  9399,6829.9119999999975,93.623,452.628,450.926,0.0
54102.0,STARLINK-5179,PAYLOAD,2022-12-16 14:00:01,15.37480586,0.0001333,53.2165,228.0961,74.1926,83.1029,-0.033915,-0.01153596,0.0,0 STARLINK-5179,1 54102U 22136BD  22350.58334491 -.01153596  00000-0 -33915-1 0  9999,2 54102  53.2165 228.0961 0001333  74.1926  83.1029 15.37480586  1307,6831.699000000001,93.66,454.475,452.654,0.0
54102.0,STARLINK-5179,PAYLOAD,2022-12-16 22:00:00,15.36655989,0.0001403,53.2173,226.5344,73.3418,129.4584,-0.034307,-0.01137523,0.0,0 STARLINK-5179,1 54102U 22136BD  22350.91667824 -.01137523  00000-0 -34307-1 0  9993,2 54102  53.2173 226.5344 0001403  73.3418 129.4584 15.36655989  1309,6834.143,93.71,456.967,455.049,0.0
54102.0,STARLINK-5179,PAYLOAD,2022-12-17 06:00:00,15.35845303,0.0001304,53.2171,224.9737,75.8866,171.4349,-0.035382,-0.01142281,0.0,0 STARLINK-5179,1 54102U 22136BD  22351.25001157 -.01142281  00000-0 -35382-1 0  9993,2 54102  53.2171 224.9737 0001304  75.8866 171.4349 15.35845303  9538,6836.5480000000025,93.759,459.304,457.521,0.0
54102.0,STARLINK-5179,PAYLOAD,2022-12-17 14:00:01,15.35035918,0.0001158,53.2168,223.4141,83.1061,207.822,-0.036503,-0.01147587,0.0,0 STARLINK-5179,1 54102U 22136BD  22351.58335648 -.01147587  00000-0 -36503-1 0  9994,2 54102  53.2168 223.4141 0001158  83.1061 207.8220 15.35035918  1305,6838.951,93.809,461.608,460.024,0.0
